[
    {
        "Altitude(m)": 611965.2122114757,
        "Argument of Periapsis(deg)": 0.0,
        "Eccentricity": 0.0,
        "Inclination(deg)": 60.0,
        "Latitude(deg)": 59.14024297030926,
        "Longitude(deg)": 168.96997109320657,
        "Mean Anomaly(deg)": 81.81819999999999,
        "RAAN(deg)": 195.00000000000003,
        "Satellite Name": "Test1 863",
        "Satellite Number": 863,
        "Semi-Major Axis(m)": 6980739.136638005,
        "Time(s)": 0
    },
    {
        "Altitude(m)": 611995.8370413135,
        "Argument of Periapsis(deg)": 0.00010418945913296404,
        "Eccentricity": 0.0,
        "Inclination(deg)": 60.0,
        "Latitude(deg)": 59.283341121466414,
        "Longitude(deg)": 170.10333681592158,
        "Mean Anomaly(deg)": 82.43830614546184,
        "RAAN(deg)": 194.99957995086024,
        "Satellite Name": "Test1 863",
        "Satellite Number": 863,
        "Semi-Major Axis(m)": 6980739.136638005,
        "Time(s)": 10
    }
]